{
  "type": "FeatureCollection",
  "features": [
    {
      "type": "Feature",
      "properties": {
        "norad_id": 30110,
        "name": "FENGYUN 1C DEB",
        "group": "fengyun-1c-debris",
        "lat": -49.471381573573375,
        "lon": 100.64634509323757,
        "alt_km": 949.5643867942563,
        "timestamp": "2025-12-06T16:45:42.995927+00:00",
        "meta_object_name": "FENGYUN 1C DEB",
        "meta_object_id": "1999-025RP",
        "meta_epoch": "2025-12-05T05:35:19.334688",
        "meta_mean_motion": 13.56219878,
        "meta_eccentricity": 0.02679099,
        "meta_inclination": 98.9078,
        "meta_ra_of_asc_node": 88.7495,
        "meta_arg_of_pericenter": 12.4434,
        "meta_mean_anomaly": 348.3153,
        "meta_ephemeris_type": 0,
        "meta_classification_type": "U",
        "meta_norad_cat_id": 30110,
        "meta_element_set_no": 999,
        "meta_rev_at_epoch": 93413,
        "meta_bstar": 0.00037124116,
        "meta_mean_motion_dot": 2.9e-06,
        "meta_mean_motion_ddot": 0,
        "tle_line1": "1 30110U 99025RP  25339.23286267  .00000290  00000+0  37124-3 0  9998",
        "tle_line2": "2 30110  98.9078  88.7495 0267909  12.4434 348.3153 13.56219878934137"
      },
      "geometry": {
        "type": "Point",
        "coordinates": [
          100.64634509323757,
          -49.471381573573375
        ]
      }
    },
    {
      "type": "Feature",
      "properties": {
        "norad_id": 30112,
        "name": "FENGYUN 1C DEB",
        "group": "fengyun-1c-debris",
        "lat": 29.561601837534244,
        "lon": 139.649032167906,
        "alt_km": 684.5277548390768,
        "timestamp": "2025-12-06T16:45:42.995937+00:00",
        "meta_object_name": "FENGYUN 1C DEB",
        "meta_object_id": "1999-025RR",
        "meta_epoch": "2025-12-06T04:15:12.550176",
        "meta_mean_motion": 14.22195686,
        "meta_eccentricity": 0.02015805,
        "meta_inclination": 99.281,
        "meta_ra_of_asc_node": 313.7787,
        "meta_arg_of_pericenter": 126.2551,
        "meta_mean_anomaly": 235.7439,
        "meta_ephemeris_type": 0,
        "meta_classification_type": "U",
        "meta_norad_cat_id": 30112,
        "meta_element_set_no": 999,
        "meta_rev_at_epoch": 97489,
        "meta_bstar": 0.00073068376,
        "meta_mean_motion_dot": 1.944e-05,
        "meta_mean_motion_ddot": 0,
        "tle_line1": "1 30112U 99025RR  25340.17722859  .00001944  00000+0  73068-3 0  9991",
        "tle_line2": "2 30112  99.2810 313.7787 0201580 126.2551 235.7439 14.22195686974896"
      },
      "geometry": {
        "type": "Point",
        "coordinates": [
          139.649032167906,
          29.561601837534244
        ]
      }
    },
    {
      "type": "Feature",
      "properties": {
        "norad_id": 30113,
        "name": "FENGYUN 1C DEB",
        "group": "fengyun-1c-debris",
        "lat": -65.80164940170229,
        "lon": -8.249316554607917,
        "alt_km": 767.8107697529122,
        "timestamp": "2025-12-06T16:45:42.995948+00:00",
        "meta_object_name": "FENGYUN 1C DEB",
        "meta_object_id": "1999-025RS",
        "meta_epoch": "2025-12-06T01:22:37.338240",
        "meta_mean_motion": 14.45194597,
        "meta_eccentricity": 0.00406832,
        "meta_inclination": 99.0371,
        "meta_ra_of_asc_node": 191.8107,
        "meta_arg_of_pericenter": 21.196,
        "meta_mean_anomaly": 133.3238,
        "meta_ephemeris_type": 0,
        "meta_classification_type": "U",
        "meta_norad_cat_id": 30113,
        "meta_element_set_no": 999,
        "meta_rev_at_epoch": 97812,
        "meta_bstar": 0.0030309869,
        "meta_mean_motion_dot": 0.00010693,
        "meta_mean_motion_ddot": 0,
        "tle_line1": "1 30113U 99025RS  25340.05737660  .00010693  00000+0  30310-2 0  9998",
        "tle_line2": "2 30113  99.0371 191.8107 0040683  21.1960 133.3238 14.45194597978125"
      },
      "geometry": {
        "type": "Point",
        "coordinates": [
          -8.249316554607917,
          -65.80164940170229
        ]
      }
    },
    {
      "type": "Feature",
      "properties": {
        "norad_id": 30114,
        "name": "FENGYUN 1C DEB",
        "group": "fengyun-1c-debris",
        "lat": 81.12953637018356,
        "lon": -97.32945805359518,
        "alt_km": 813.2536935108865,
        "timestamp": "2025-12-06T16:45:42.995958+00:00",
        "meta_object_name": "FENGYUN 1C DEB",
        "meta_object_id": "1999-025RT",
        "meta_epoch": "2025-12-06T06:13:33.536352",
        "meta_mean_motion": 14.09645697,
        "meta_eccentricity": 0.00819785,
        "meta_inclination": 98.7468,
        "meta_ra_of_asc_node": 342.8049,
        "meta_arg_of_pericenter": 137.9404,
        "meta_mean_anomaly": 244.7557,
        "meta_ephemeris_type": 0,
        "meta_classification_type": "U",
        "meta_norad_cat_id": 30114,
        "meta_element_set_no": 999,
        "meta_rev_at_epoch": 97063,
        "meta_bstar": 0.00027580464,
        "meta_mean_motion_dot": 4.56e-06,
        "meta_mean_motion_ddot": 0,
        "tle_line1": "1 30114U 99025RT  25340.25941593  .00000456  00000+0  27580-3 0  9995",
        "tle_line2": "2 30114  98.7468 342.8049 0081978 137.9404 244.7557 14.09645697970634"
      },
      "geometry": {
        "type": "Point",
        "coordinates": [
          -97.32945805359518,
          81.12953637018356
        ]
      }
    },
    {
      "type": "Feature",
      "properties": {
        "norad_id": 30115,
        "name": "FENGYUN 1C DEB",
        "group": "fengyun-1c-debris",
        "lat": -59.284117997387376,
        "lon": 22.93807987189995,
        "alt_km": 869.9147256483711,
        "timestamp": "2025-12-06T16:45:42.995969+00:00",
        "meta_object_name": "FENGYUN 1C DEB",
        "meta_object_id": "1999-025RU",
        "meta_epoch": "2025-12-06T00:27:01.194048",
        "meta_mean_motion": 14.19737404,
        "meta_eccentricity": 0.00681119,
        "meta_inclination": 98.6227,
        "meta_ra_of_asc_node": 7.4792,
        "meta_arg_of_pericenter": 80.0914,
        "meta_mean_anomaly": 348.3098,
        "meta_ephemeris_type": 0,
        "meta_classification_type": "U",
        "meta_norad_cat_id": 30115,
        "meta_element_set_no": 999,
        "meta_rev_at_epoch": 97233,
        "meta_bstar": 0.0016710021,
        "meta_mean_motion_dot": 3.578e-05,
        "meta_mean_motion_ddot": 0,
        "tle_line1": "1 30115U 99025RU  25340.01876382  .00003578  00000+0  16710-2 0  9993",
        "tle_line2": "2 30115  98.6227   7.4792 0068111  80.0914 348.3098 14.19737404972333"
      },
      "geometry": {
        "type": "Point",
        "coordinates": [
          22.93807987189995,
          -59.284117997387376
        ]
      }
    },
    {
      "type": "Feature",
      "properties": {
        "norad_id": 30116,
        "name": "FENGYUN 1C DEB",
        "group": "fengyun-1c-debris",
        "lat": 18.016895959936278,
        "lon": 48.17491075597928,
        "alt_km": 780.6178933599494,
        "timestamp": "2025-12-06T16:45:42.995979+00:00",
        "meta_object_name": "FENGYUN 1C DEB",
        "meta_object_id": "1999-025RV",
        "meta_epoch": "2025-12-06T00:27:08.154432",
        "meta_mean_motion": 14.29211581,
        "meta_eccentricity": 0.00205176,
        "meta_inclination": 99.3985,
        "meta_ra_of_asc_node": 50.5308,
        "meta_arg_of_pericenter": 2.546,
        "meta_mean_anomaly": 121.1998,
        "meta_ephemeris_type": 0,
        "meta_classification_type": "U",
        "meta_norad_cat_id": 30116,
        "meta_element_set_no": 999,
        "meta_rev_at_epoch": 97413,
        "meta_bstar": 0.0024336659,
        "meta_mean_motion_dot": 6.151e-05,
        "meta_mean_motion_ddot": 0,
        "tle_line1": "1 30116U 99025RV  25340.01884438  .00006151  00000+0  24337-2 0  9999",
        "tle_line2": "2 30116  99.3985  50.5308 0020517   2.5460 121.1998 14.29211581974138"
      },
      "geometry": {
        "type": "Point",
        "coordinates": [
          48.17491075597928,
          18.016895959936278
        ]
      }
    },
    {
      "type": "Feature",
      "properties": {
        "norad_id": 30117,
        "name": "FENGYUN 1C DEB",
        "group": "fengyun-1c-debris",
        "lat": 57.119509783896625,
        "lon": -44.56714469320985,
        "alt_km": 979.376286848511,
        "timestamp": "2025-12-06T16:45:42.995989+00:00",
        "meta_object_name": "FENGYUN 1C DEB",
        "meta_object_id": "1999-025RW",
        "meta_epoch": "2025-12-06T06:19:11.673120",
        "meta_mean_motion": 14.07155617,
        "meta_eccentricity": 0.01634278,
        "meta_inclination": 98.8035,
        "meta_ra_of_asc_node": 328.8792,
        "meta_arg_of_pericenter": 227.4681,
        "meta_mean_anomaly": 148.3635,
        "meta_ephemeris_type": 0,
        "meta_classification_type": "U",
        "meta_norad_cat_id": 30117,
        "meta_element_set_no": 999,
        "meta_rev_at_epoch": 96898,
        "meta_bstar": 0.0004387134,
        "meta_mean_motion_dot": 7.86e-06,
        "meta_mean_motion_ddot": 0,
        "tle_line1": "1 30117U 99025RW  25340.26332955  .00000786  00000+0  43871-3 0  9992",
        "tle_line2": "2 30117  98.8035 328.8792 0163427 227.4681 148.3635 14.07155617968986"
      },
      "geometry": {
        "type": "Point",
        "coordinates": [
          -44.56714469320985,
          57.119509783896625
        ]
      }
    }
  ]
}